STARLINK-36568          
1 68017U 26040C   26070.75002314 -.01042137  35837-3 -19352-2 0  9992
2 68017  97.2753  19.1163 0001155  84.8720  45.3600 16.01130409  2756
STARLINK-36930          
1 68018U 26040D   26070.75002314 -.01030809  35036-3 -19369-2 0  9995
2 68018  97.2752  19.1137 0001119  73.1712  50.6685 16.00922222  2752
STARLINK-36921          
1 68019U 26040E   26070.25002315 -.01052306  37034-3 -18134-2 0  9997
2 68019  97.2764  18.5726 0001106 121.0334  13.3751 16.02423775  2674
STARLINK-36928          
1 68020U 26040F   26070.75002314 -.01048451  36279-3 -19366-2 0  9997
2 68020  97.2752  19.1168 0001210  88.5515  44.1207 16.01223006  2755
STARLINK-36858          
1 68021U 26040G   26070.84796590  .01293419  10411-2  16514-2 0  9999
2 68021  97.2746  19.2325 0001743 168.4727 191.6596 16.07610848  1689
STARLINK-36916          
1 68022U 26040H   26070.41668981 -.01180295  45743-3 -20475-2 0  9992
2 68022  97.2761  18.7570 0000935  93.1787 287.9719 16.02328708  2701
STARLINK-36871          
1 68023U 26040J   26070.75002314 -.01044478  36196-3 -18839-2 0  9997
2 68023  97.2750  19.1221 0001180  78.6663  66.6643 16.01636460  2751
STARLINK-36891          
1 68024U 26040K   26070.75002314 -.01039542  35928-3 -18621-2 0  9995
2 68024  97.2749  19.1240 0001119  82.6234  66.6323 16.01754801  2757
STARLINK-36378          
1 68025U 26040L   26070.75002314 -.01115186  41032-3 -19704-2 0  9991
2 68025  97.2762  19.1273 0001069  82.1628  74.0119 16.02003198  2703
STARLINK-36884          
1 68026U 26040M   26070.75002314 -.01077140  38426-3 -19161-2 0  9999
2 68026  97.2756  19.1252 0001088  82.4208  70.3983 16.01880636  2754
STARLINK-36940          
1 68027U 26040N   26070.75002314 -.01326001  57396-3 -21727-2 0  9991
2 68027  97.2778  19.1535 0001191  77.9679 140.5274 16.03322576  2859
STARLINK-36253          
1 68028U 26040P   26070.75002314 -.02121543  00000+0 -10676-1 0  9993
2 68028  97.2775  19.0266 0001550 103.8018 188.0711 15.84808689  2857
